*******************************************************************************
Ephemeris / WWW_USER Mon Mar 10 06:42:16 2025 Pasadena, USA      / Horizons    
*******************************************************************************
Target body name: (2018 TG6)                      {source: JPL#30}
Center body name: Earth (399)                     {source: DE441}
Center-site name: Mauna Kea
*******************************************************************************
Start time      : A.D. 2019-Jan-19 04:15:00.0000 UT      
Stop  time      : A.D. 2019-Jan-19 16:49:00.0000 UT      
Step-size       : 1 minutes
*******************************************************************************
Target pole/equ : undefined
Target radii    : undefined                                                    
Center geodetic : 204.5278, 19.8260847, 4.21024   {E-lon(deg),Lat(deg),Alt(km)}
Center cylindric: 204.5278, 6006.35451, 2151.0229 {E-lon(deg),Dxy(km),Dz(km)}
Center pole/equ : ITRF93                          {East-longitude positive}
Center radii    : 6378.137, 6378.137, 6356.752 km {Equator_a, b, pole_c}       
Target primary  : Sun
Vis. interferer : MOON (R_eq= 1737.400) km        {source: DE441}
Rel. light bend : Sun                             {source: DE441}
Rel. lght bnd GM: 1.3271E+11 km^3/s^2                                          
Small-body perts: Yes                             {source: SB441-N16}
Atmos refraction: NO (AIRLESS)
RA format       : HMS
Time format     : CAL 
Calendar mode   : Mixed Julian/Gregorian
RTS-only print  : NO       
EOP file        : eop.250307.p250603                                           
EOP coverage    : DATA-BASED 1962-JAN-20 TO 2025-MAR-07. PREDICTS-> 2025-JUN-02
Units conversion: 1 au= 149597870.700 km, c= 299792.458 km/s, 1 day= 86400.0 s 
Table cut-offs 1: Elevation (-90.0deg=NO ),Airmass (>38.000=NO), Daylight (YES)
Table cut-offs 2: Solar elongation (  0.0,180.0=NO ),Local Hour Angle( 0.0=NO )
Table cut-offs 3: RA/DEC angular rate (     0.0=NO )                           
*******************************************************************************
Initial IAU76/J2000 heliocentric ecliptic osculating elements (au, days, deg.):
  EPOCH=  2458431.5 ! 2018-Nov-09.00 (TDB)         Residual RMS= .2345         
   EC= .08078462401503236  QR= .9719826736009184   TP= 2458484.4320189627      
   OM= 45.37159736002829   W=  55.46172815883946   IN= 1.097814612439332       
  Equivalent ICRF heliocentric cartesian coordinates (au, au/d):
   X= 7.039692724255667E-01  Y= 6.572194580492579E-01  Z= 2.849862807208282E-01
  VX=-1.330010453008250E-02 VY= 1.042346427712734E-02 VZ= 4.885657766154543E-03
Asteroid physical parameters (km, seconds, rotational period in hours):        
   GM= n.a.                RAD= n.a.               ROTPER= n.a.                
   H= 27.25                G= .150                 B-V= n.a.                   
                           ALBEDO= n.a.            STYP= n.a.                  
*******************************************************************************
 Date__(UT)__HR:MN     R.A._________(ICRF)_________DEC
******************************************************
$$SOE
 2019-Jan-19 16:33 N   14 21 30.319286 +07 55 30.33552
 2019-Jan-19 16:34 N   14 21 30.215237 +07 55 29.57088
 2019-Jan-19 16:35 N   14 21 30.111169 +07 55 28.80562
 2019-Jan-19 16:36 N   14 21 30.007083 +07 55 28.03972
 2019-Jan-19 16:37 C   14 21 29.902982 +07 55 27.27319
 2019-Jan-19 16:38 C   14 21 29.798866 +07 55 26.50603
 2019-Jan-19 16:39 C   14 21 29.694738 +07 55 25.73824
 2019-Jan-19 16:40 C   14 21 29.590597 +07 55 24.96981
 2019-Jan-19 16:41 C   14 21 29.486446 +07 55 24.20076
 2019-Jan-19 16:42 C   14 21 29.382287 +07 55 23.43107
 2019-Jan-19 16:43 C   14 21 29.278120 +07 55 22.66075
 2019-Jan-19 16:44 C   14 21 29.173947 +07 55 21.88980
 2019-Jan-19 16:45 C   14 21 29.069769 +07 55 21.11822
 2019-Jan-19 16:46 C   14 21 28.965588 +07 55 20.34601
 2019-Jan-19 16:47 C   14 21 28.861405 +07 55 19.57316
 2019-Jan-19 16:48 C   14 21 28.757221 +07 55 18.79968
 2019-Jan-19 16:49 C   14 21 28.653039 +07 55 18.02557
